{
  "type": "FeatureCollection",
  "features": [
    {
      "type": "Feature",
      "properties": {
        "norad_id": 66905,
        "name": "STARLINK-36075",
        "group": "last-30-days",
        "lat": -19.952162219288883,
        "lon": 1.9388806568805426,
        "alt_km": 369.6003107170591,
        "timestamp": "2025-12-23T22:42:31.702524+00:00",
        "meta_object_name": "STARLINK-36075",
        "meta_object_id": "2025-283AD",
        "meta_epoch": "2025-12-23T06:00:00.999648",
        "meta_mean_motion": 15.70408453,
        "meta_eccentricity": 0.00010422,
        "meta_inclination": 53.1592,
        "meta_ra_of_asc_node": 21.1614,
        "meta_arg_of_pericenter": 79.3554,
        "meta_mean_anomaly": 281.1067,
        "meta_ephemeris_type": 0,
        "meta_classification_type": "U",
        "meta_norad_cat_id": 66905,
        "meta_element_set_no": 999,
        "meta_rev_at_epoch": 411,
        "meta_bstar": -0.017981363,
        "meta_mean_motion_dot": -0.01980923,
        "meta_mean_motion_ddot": 0,
        "tle_line1": "1 66905U 25283AD  25357.25001157 -.01980923  00000+0 -17981-1 0  9999",
        "tle_line2": "2 66905  53.1592  21.1614 0001042  79.3554 281.1067 15.70408453  4116"
      },
      "geometry": {
        "type": "Point",
        "coordinates": [
          1.9388806568805426,
          -19.952162219288883
        ]
      }
    },
    {
      "type": "Feature",
      "properties": {
        "norad_id": 66906,
        "name": "1998-067XS",
        "group": "last-30-days",
        "lat": 20.653658023856583,
        "lon": 104.19083624971177,
        "alt_km": 412.30175100305587,
        "timestamp": "2025-12-23T22:42:31.702534+00:00",
        "meta_object_name": "1998-067XS",
        "meta_object_id": "1998-067XS",
        "meta_epoch": "2025-12-22T11:01:48.942336",
        "meta_mean_motion": 15.51071617,
        "meta_eccentricity": 0.00028954,
        "meta_inclination": 51.6319,
        "meta_ra_of_asc_node": 94.197,
        "meta_arg_of_pericenter": 250.8689,
        "meta_mean_anomaly": 109.1987,
        "meta_ephemeris_type": 0,
        "meta_classification_type": "U",
        "meta_norad_cat_id": 66906,
        "meta_element_set_no": 999,
        "meta_rev_at_epoch": 312,
        "meta_bstar": 0.00051361561,
        "meta_mean_motion_dot": 0.00030106,
        "meta_mean_motion_ddot": 0,
        "tle_line1": "1 66906U 98067XS  25356.45959424  .00030106  00000+0  51362-3 0  9999",
        "tle_line2": "2 66906  51.6319  94.1970 0002895 250.8689 109.1987 15.51071617  3121"
      },
      "geometry": {
        "type": "Point",
        "coordinates": [
          104.19083624971177,
          20.653658023856583
        ]
      }
    },
    {
      "type": "Feature",
      "properties": {
        "norad_id": 66907,
        "name": "1998-067XT",
        "group": "last-30-days",
        "lat": 51.49991624424402,
        "lon": -178.21123249084837,
        "alt_km": 403.8859324547011,
        "timestamp": "2025-12-23T22:42:31.702546+00:00",
        "meta_object_name": "1998-067XT",
        "meta_object_id": "1998-067XT",
        "meta_epoch": "2025-12-22T07:41:32.890848",
        "meta_mean_motion": 15.52583192,
        "meta_eccentricity": 0.00038425,
        "meta_inclination": 51.6311,
        "meta_ra_of_asc_node": 94.7687,
        "meta_arg_of_pericenter": 286.1212,
        "meta_mean_anomaly": 73.9355,
        "meta_ephemeris_type": 0,
        "meta_classification_type": "U",
        "meta_norad_cat_id": 66907,
        "meta_element_set_no": 999,
        "meta_rev_at_epoch": 310,
        "meta_bstar": 0.0011084243,
        "meta_mean_motion_dot": 0.00069527,
        "meta_mean_motion_ddot": 0,
        "tle_line1": "1 66907U 98067XT  25356.32051957  .00069527  00000+0  11084-2 0  9995",
        "tle_line2": "2 66907  51.6311  94.7687 0003842 286.1212  73.9355 15.52583192  3104"
      },
      "geometry": {
        "type": "Point",
        "coordinates": [
          -178.21123249084837,
          51.49991624424402
        ]
      }
    },
    {
      "type": "Feature",
      "properties": {
        "norad_id": 66908,
        "name": "1998-067XU",
        "group": "last-30-days",
        "lat": 50.76458695988899,
        "lon": -169.3137280572853,
        "alt_km": 403.8703889707176,
        "timestamp": "2025-12-23T22:42:31.702556+00:00",
        "meta_object_name": "1998-067XU",
        "meta_object_id": "1998-067XU",
        "meta_epoch": "2025-12-22T12:18:16.541280",
        "meta_mean_motion": 15.52707663,
        "meta_eccentricity": 0.00038713,
        "meta_inclination": 51.631,
        "meta_ra_of_asc_node": 93.8007,
        "meta_arg_of_pericenter": 283.9304,
        "meta_mean_anomaly": 76.1255,
        "meta_ephemeris_type": 0,
        "meta_classification_type": "U",
        "meta_norad_cat_id": 66908,
        "meta_element_set_no": 999,
        "meta_rev_at_epoch": 313,
        "meta_bstar": 0.0010107547,
        "meta_mean_motion_dot": 0.00063598,
        "meta_mean_motion_ddot": 0,
        "tle_line1": "1 66908U 98067XU  25356.51269145  .00063598  00000+0  10108-2 0  9995",
        "tle_line2": "2 66908  51.6310  93.8007 0003871 283.9304  76.1255 15.52707663  3137"
      },
      "geometry": {
        "type": "Point",
        "coordinates": [
          -169.3137280572853,
          50.76458695988899
        ]
      }
    },
    {
      "type": "Feature",
      "properties": {
        "norad_id": 66909,
        "name": "SILVERSAT",
        "group": "last-30-days",
        "lat": 48.59586417358853,
        "lon": -157.31929549812568,
        "alt_km": 403.57036008779414,
        "timestamp": "2025-12-23T22:42:31.702566+00:00",
        "meta_object_name": "SILVERSAT",
        "meta_object_id": "1998-067XV",
        "meta_epoch": "2025-12-22T12:16:28.422912",
        "meta_mean_motion": 15.52898333,
        "meta_eccentricity": 0.0003866,
        "meta_inclination": 51.6306,
        "meta_ra_of_asc_node": 93.7929,
        "meta_arg_of_pericenter": 288.2093,
        "meta_mean_anomaly": 71.8476,
        "meta_ephemeris_type": 0,
        "meta_classification_type": "U",
        "meta_norad_cat_id": 66909,
        "meta_element_set_no": 999,
        "meta_rev_at_epoch": 313,
        "meta_bstar": 0.0011325313,
        "meta_mean_motion_dot": 0.00071888,
        "meta_mean_motion_ddot": 0,
        "tle_line1": "1 66909U 98067XV  25356.51144008  .00071888  00000+0  11325-2 0  9999",
        "tle_line2": "2 66909  51.6306  93.7929 0003866 288.2093  71.8476 15.52898333  3134"
      },
      "geometry": {
        "type": "Point",
        "coordinates": [
          -157.31929549812568,
          48.59586417358853
        ]
      }
    },
    {
      "type": "Feature",
      "properties": {
        "norad_id": 66910,
        "name": "1998-067XW",
        "group": "last-30-days",
        "lat": 44.561734094818526,
        "lon": -144.65497133187642,
        "alt_km": 404.08460717615526,
        "timestamp": "2025-12-23T22:42:31.702579+00:00",
        "meta_object_name": "1998-067XW",
        "meta_object_id": "1998-067XW",
        "meta_epoch": "2025-12-23T06:45:57.042144",
        "meta_mean_motion": 15.52963068,
        "meta_eccentricity": 0.00039303,
        "meta_inclination": 51.6302,
        "meta_ra_of_asc_node": 89.9385,
        "meta_arg_of_pericenter": 266.0255,
        "meta_mean_anomaly": 94.0285,
        "meta_ephemeris_type": 0,
        "meta_classification_type": "U",
        "meta_norad_cat_id": 66910,
        "meta_element_set_no": 999,
        "meta_rev_at_epoch": 325,
        "meta_bstar": 0.0010076721,
        "meta_mean_motion_dot": 0.00063997,
        "meta_mean_motion_ddot": 0,
        "tle_line1": "1 66910U 98067XW  25357.28191021  .00063997  00000+0  10077-2 0  9998",
        "tle_line2": "2 66910  51.6302  89.9385 0003930 266.0255  94.0285 15.52963068  3257"
      },
      "geometry": {
        "type": "Point",
        "coordinates": [
          -144.65497133187642,
          44.561734094818526
        ]
      }
    },
    {
      "type": "Feature",
      "properties": {
        "norad_id": 66911,
        "name": "1998-067XX",
        "group": "last-30-days",
        "lat": 33.15365532240413,
        "lon": -124.57815677783488,
        "alt_km": 403.97828851461054,
        "timestamp": "2025-12-23T22:42:31.702591+00:00",
        "meta_object_name": "1998-067XX",
        "meta_object_id": "1998-067XX",
        "meta_epoch": "2025-12-23T06:41:16.956672",
        "meta_mean_motion": 15.53428258,
        "meta_eccentricity": 0.00036741,
        "meta_inclination": 51.6305,
        "meta_ra_of_asc_node": 89.9162,
        "meta_arg_of_pericenter": 271.3133,
        "meta_mean_anomaly": 88.7437,
        "meta_ephemeris_type": 0,
        "meta_classification_type": "U",
        "meta_norad_cat_id": 66911,
        "meta_element_set_no": 999,
        "meta_rev_at_epoch": 324,
        "meta_bstar": 0.0011217181,
        "meta_mean_motion_dot": 0.00072588,
        "meta_mean_motion_ddot": 0,
        "tle_line1": "1 66911U 98067XX  25357.27866848  .00072588  00000+0  11217-2 0  9997",
        "tle_line2": "2 66911  51.6305  89.9162 0003674 271.3133  88.7437 15.53428258  3249"
      },
      "geometry": {
        "type": "Point",
        "coordinates": [
          -124.57815677783488,
          33.15365532240413
        ]
      }
    }
  ]
}